{
  "type": "FeatureCollection",
  "features": [
    {
      "type": "Feature",
      "properties": {
        "norad_id": 33924,
        "name": "COSMOS 2251 DEB",
        "group": "cosmos-2251-debris",
        "lat": 54.740461277130045,
        "lon": 43.29241090569397,
        "alt_km": 1344.1301408539557,
        "timestamp": "2025-12-26T22:28:06.178484+00:00",
        "meta_object_name": "COSMOS 2251 DEB",
        "meta_object_id": "1993-036ED",
        "meta_epoch": "2025-12-26T18:16:49.524384",
        "meta_mean_motion": 13.50241221,
        "meta_eccentricity": 0.0403753,
        "meta_inclination": 73.9128,
        "meta_ra_of_asc_node": 247.6625,
        "meta_arg_of_pericenter": 280.6355,
        "meta_mean_anomaly": 74.9531,
        "meta_ephemeris_type": 0,
        "meta_classification_type": "U",
        "meta_norad_cat_id": 33924,
        "meta_element_set_no": 999,
        "meta_rev_at_epoch": 82928,
        "meta_bstar": 0.00043319,
        "meta_mean_motion_dot": 4.35e-06,
        "meta_mean_motion_ddot": 0,
        "tle_line1": "1 33924U 93036ED  25360.76168431  .00000435  00000+0  43319-3 0  9998",
        "tle_line2": "2 33924  73.9128 247.6625 0403753 280.6355  74.9531 13.50241221829285"
      },
      "geometry": {
        "type": "Point",
        "coordinates": [
          43.29241090569397,
          54.740461277130045
        ]
      }
    },
    {
      "type": "Feature",
      "properties": {
        "norad_id": 33928,
        "name": "COSMOS 2251 DEB",
        "group": "cosmos-2251-debris",
        "lat": -38.93079680754383,
        "lon": 12.366833192088212,
        "alt_km": 696.0094600957227,
        "timestamp": "2025-12-26T22:28:06.178494+00:00",
        "meta_object_name": "COSMOS 2251 DEB",
        "meta_object_id": "1993-036EH",
        "meta_epoch": "2025-12-26T11:02:35.371104",
        "meta_mean_motion": 14.47430204,
        "meta_eccentricity": 0.0062099,
        "meta_inclination": 73.9252,
        "meta_ra_of_asc_node": 26.732,
        "meta_arg_of_pericenter": 318.0865,
        "meta_mean_anomaly": 41.5547,
        "meta_ephemeris_type": 0,
        "meta_classification_type": "U",
        "meta_norad_cat_id": 33928,
        "meta_element_set_no": 999,
        "meta_rev_at_epoch": 88843,
        "meta_bstar": 0.00027751,
        "meta_mean_motion_dot": 1.014e-05,
        "meta_mean_motion_ddot": 0,
        "tle_line1": "1 33928U 93036EH  25360.46013161  .00001014  00000+0  27751-3 0  9994",
        "tle_line2": "2 33928  73.9252  26.7320 0062099 318.0865  41.5547 14.47430204888438"
      },
      "geometry": {
        "type": "Point",
        "coordinates": [
          12.366833192088212,
          -38.93079680754383
        ]
      }
    },
    {
      "type": "Feature",
      "properties": {
        "norad_id": 33932,
        "name": "COSMOS 2251 DEB",
        "group": "cosmos-2251-debris",
        "lat": 14.693167475361102,
        "lon": -65.96052883882791,
        "alt_km": 737.90438325571,
        "timestamp": "2025-12-26T22:28:06.178505+00:00",
        "meta_object_name": "COSMOS 2251 DEB",
        "meta_object_id": "1993-036EM",
        "meta_epoch": "2025-12-26T05:42:38.676096",
        "meta_mean_motion": 14.3879706,
        "meta_eccentricity": 0.0036017,
        "meta_inclination": 74.0343,
        "meta_ra_of_asc_node": 291.0216,
        "meta_arg_of_pericenter": 4.0198,
        "meta_mean_anomaly": 356.1238,
        "meta_ephemeris_type": 0,
        "meta_classification_type": "U",
        "meta_norad_cat_id": 33932,
        "meta_element_set_no": 999,
        "meta_rev_at_epoch": 88192,
        "meta_bstar": 0.00049745,
        "meta_mean_motion_dot": 1.514e-05,
        "meta_mean_motion_ddot": 0,
        "tle_line1": "1 33932U 93036EM  25360.23794764  .00001514  00000+0  49745-3 0  9991",
        "tle_line2": "2 33932  74.0343 291.0216 0036017   4.0198 356.1238 14.38797060881924"
      },
      "geometry": {
        "type": "Point",
        "coordinates": [
          -65.96052883882791,
          14.693167475361102
        ]
      }
    },
    {
      "type": "Feature",
      "properties": {
        "norad_id": 33933,
        "name": "COSMOS 2251 DEB",
        "group": "cosmos-2251-debris",
        "lat": -44.52816633136624,
        "lon": 17.966764316919928,
        "alt_km": 781.7651114461896,
        "timestamp": "2025-12-26T22:28:06.178516+00:00",
        "meta_object_name": "COSMOS 2251 DEB",
        "meta_object_id": "1993-036EN",
        "meta_epoch": "2025-12-26T09:17:09.227040",
        "meta_mean_motion": 14.33509628,
        "meta_eccentricity": 0.0071065,
        "meta_inclination": 74.0887,
        "meta_ra_of_asc_node": 35.2632,
        "meta_arg_of_pericenter": 39.6174,
        "meta_mean_anomaly": 321.0139,
        "meta_ephemeris_type": 0,
        "meta_classification_type": "U",
        "meta_norad_cat_id": 33933,
        "meta_element_set_no": 999,
        "meta_rev_at_epoch": 87980,
        "meta_bstar": 0.00028229,
        "meta_mean_motion_dot": 7.77e-06,
        "meta_mean_motion_ddot": 0,
        "tle_line1": "1 33933U 93036EN  25360.38691235  .00000777  00000+0  28229-3 0  9991",
        "tle_line2": "2 33933  74.0887  35.2632 0071065  39.6174 321.0139 14.33509628879809"
      },
      "geometry": {
        "type": "Point",
        "coordinates": [
          17.966764316919928,
          -44.52816633136624
        ]
      }
    },
    {
      "type": "Feature",
      "properties": {
        "norad_id": 33934,
        "name": "COSMOS 2251 DEB",
        "group": "cosmos-2251-debris",
        "lat": -55.21046898926468,
        "lon": 49.19266419452157,
        "alt_km": 705.0313899650646,
        "timestamp": "2025-12-26T22:28:06.178526+00:00",
        "meta_object_name": "COSMOS 2251 DEB",
        "meta_object_id": "1993-036EP",
        "meta_epoch": "2025-12-26T14:30:37.321632",
        "meta_mean_motion": 14.5921941,
        "meta_eccentricity": 0.0015008,
        "meta_inclination": 74.0378,
        "meta_ra_of_asc_node": 74.1534,
        "meta_arg_of_pericenter": 197.538,
        "meta_mean_anomaly": 162.5269,
        "meta_ephemeris_type": 0,
        "meta_classification_type": "U",
        "meta_norad_cat_id": 33934,
        "meta_element_set_no": 999,
        "meta_rev_at_epoch": 88941,
        "meta_bstar": 0.00087978,
        "meta_mean_motion_dot": 4.13e-05,
        "meta_mean_motion_ddot": 0,
        "tle_line1": "1 33934U 93036EP  25360.60459863  .00004130  00000+0  87978-3 0  9999",
        "tle_line2": "2 33934  74.0378  74.1534 0015008 197.5380 162.5269 14.59219410889411"
      },
      "geometry": {
        "type": "Point",
        "coordinates": [
          49.19266419452157,
          -55.21046898926468
        ]
      }
    },
    {
      "type": "Feature",
      "properties": {
        "norad_id": 33936,
        "name": "COSMOS 2251 DEB",
        "group": "cosmos-2251-debris",
        "lat": -66.046229569265,
        "lon": -29.822943915012434,
        "alt_km": 709.8888343028493,
        "timestamp": "2025-12-26T22:28:06.178536+00:00",
        "meta_object_name": "COSMOS 2251 DEB",
        "meta_object_id": "1993-036ER",
        "meta_epoch": "2025-12-26T17:51:59.177088",
        "meta_mean_motion": 14.6035499,
        "meta_eccentricity": 0.0026603,
        "meta_inclination": 74.0184,
        "meta_ra_of_asc_node": 10.7155,
        "meta_arg_of_pericenter": 162.6817,
        "meta_mean_anomaly": 197.5262,
        "meta_ephemeris_type": 0,
        "meta_classification_type": "U",
        "meta_norad_cat_id": 33936,
        "meta_element_set_no": 999,
        "meta_rev_at_epoch": 89094,
        "meta_bstar": 0.00067312,
        "meta_mean_motion_dot": 3.243e-05,
        "meta_mean_motion_ddot": 0,
        "tle_line1": "1 33936U 93036ER  25360.74443492  .00003243  00000+0  67312-3 0  9991",
        "tle_line2": "2 33936  74.0184  10.7155 0026603 162.6817 197.5262 14.60354990890940"
      },
      "geometry": {
        "type": "Point",
        "coordinates": [
          -29.822943915012434,
          -66.046229569265
        ]
      }
    },
    {
      "type": "Feature",
      "properties": {
        "norad_id": 33938,
        "name": "COSMOS 2251 DEB",
        "group": "cosmos-2251-debris",
        "lat": 7.57320076417748,
        "lon": -1.5096260970494604,
        "alt_km": 737.4808892380115,
        "timestamp": "2025-12-26T22:28:06.178546+00:00",
        "meta_object_name": "COSMOS 2251 DEB",
        "meta_object_id": "1993-036ET",
        "meta_epoch": "2025-12-26T18:25:27.494112",
        "meta_mean_motion": 14.46836645,
        "meta_eccentricity": 0.0016796,
        "meta_inclination": 74.0436,
        "meta_ra_of_asc_node": 180.9849,
        "meta_arg_of_pericenter": 261.9743,
        "meta_mean_anomaly": 112.9143,
        "meta_ephemeris_type": 0,
        "meta_classification_type": "U",
        "meta_norad_cat_id": 33938,
        "meta_element_set_no": 999,
        "meta_rev_at_epoch": 88603,
        "meta_bstar": 0.0004868,
        "meta_mean_motion_dot": 1.741e-05,
        "meta_mean_motion_ddot": 0,
        "tle_line1": "1 33938U 93036ET  25360.76767933  .00001741  00000+0  48680-3 0  9992",
        "tle_line2": "2 33938  74.0436 180.9849 0016796 261.9743 112.9143 14.46836645886035"
      },
      "geometry": {
        "type": "Point",
        "coordinates": [
          -1.5096260970494604,
          7.57320076417748
        ]
      }
    }
  ]
}